{"type": "FeatureCollection", "features": [{"type": "Feature", "geometry": {"type": "Polygon", "coordinates": [[[-73.94608, 40.821271], [-73.949923, 40.822081], [-73.95083, 40.820836], [-73.956342, 40.823101], [-73.95951, 40.823604], [-73.95794, 40.822783], [-73.962032, 40.818095], [-73.959495, 40.817016], [-73.95626, 40.813398], [-73.952103, 40.811451], [-73.948836, 40.815372], [-73.94608, 40.821271]]]}, "properties": {"OBJECTID": 5, "BoroCode": 1, "BoroName": "Manhattan", "CountyFIPS": "061", "NTACode": "MN06", "NTAName": "Manhattanville", "Shape__Area": 10647077.5264282, "Shape__Length": 17040.6854129004}, "id": 5}, {"type": "Feature", "geometry": {"type": "Polygon", "coordinates": [[[-73.993833, 40.77294], [-73.996573, 40.769433], [-73.996459, 40.768107], [-73.999152, 40.764214], [-74.001535, 40.762653], [-74.001279, 40.762084], [-73.995476, 40.759635], [-73.9973, 40.757115], [-73.991634, 40.754715], [-73.982367, 40.7674], [-73.993876, 40.772246], [-73.993833, 40.77294]]]}, "properties": {"OBJECTID": 49, "BoroCode": 1, "BoroName": "Manhattan", "CountyFIPS": "061", "NTACode": "MN15", "NTAName": "Clinton", "Shape__Area": 18362148.8181, "Shape__Length": 34481.6082788022}, "id": 49}, {"type": "Feature", "geometry": {"type": "Polygon", "coordinates": [[[-73.983825, 40.721481], [-73.992605, 40.724145], [-73.994809, 40.718466], [-73.99606, 40.71624], [-73.999958, 40.718025], [-74.002724, 40.714398], [-74.006136, 40.711956], [-74.003533, 40.7114], [-73.999196, 40.707956], [-73.997284, 40.70874], [-73.991907, 40.709534], [-73.992564, 40.714396], [-73.990204, 40.714673], [-73.988368, 40.716454], [-73.986753, 40.719601], [-73.985075, 40.719092], [-73.983825, 40.721481]]]}, "properties": {"OBJECTID": 78, "BoroCode": 1, "BoroName": "Manhattan", "CountyFIPS": "061", "NTACode": "MN27", "NTAName": "Chinatown", "Shape__Area": 14501905.1352692, "Shape__Length": 20786.170513606}, "id": 78}, {"type": "Feature", "geometry": {"type": "MultiPolygon", "coordinates": [[[[-73.996699, 40.700885], [-73.99514, 40.702982], [-73.996194, 40.703385], [-73.99814, 40.701527], [-73.996699, 40.700885]]], [[[-74.006136, 40.711956], [-74.008602, 40.7114], [-74.013843, 40.713737], [-74.012443, 40.719066], [-74.013032, 40.71914], [-74.013215, 40.718324], [-74.016712, 40.718632], [-74.017802, 40.712353], [-74.019343, 40.706079], [-74.017572, 40.704192], [-74.014291, 40.704557], [-74.013953, 40.700999], [-74.01111, 40.70091], [-74.003325, 40.705637], [-74.001439, 40.70488], [-74.001188, 40.706868], [-73.999196, 40.707956], [-74.003533, 40.7114], [-74.006136, 40.711956]]]]}, "properties": {"OBJECTID": 80, "BoroCode": 1, "BoroName": "Manhattan", "CountyFIPS": "061", "NTACode": "MN25", "NTAName": "Battery Park City-Lower Manhattan", "Shape__Area": 19014259.0048523, "Shape__Length": 43738.1806597627}, "id": 80}, {"type": "Feature", "geometry": {"type": "Polygon", "coordinates": [[[-73.975003, 40.777536], [-73.985073, 40.781788], [-73.985681, 40.780321], [-73.988129, 40.78141], [-73.98887, 40.779701], [-73.990929, 40.777575], [-73.993833, 40.77294], [-73.993876, 40.772246], [-73.982367, 40.7674], [-73.981493, 40.767889], [-73.981681, 40.768398], [-73.975003, 40.777536]]]}, "properties": {"OBJECTID": 82, "BoroCode": 1, "BoroName": "Manhattan", "CountyFIPS": "061", "NTACode": "MN14", "NTAName": "Lincoln Square", "Shape__Area": 15805523.4621887, "Shape__Length": 19869.6827552471}, "id": 82}, {"type": "Feature", "geometry": {"type": "Polygon", "coordinates": [[[-73.973016, 40.764287], [-73.981493, 40.767889], [-73.982367, 40.7674], [-73.991634, 40.754715], [-73.9971, 40.747213], [-73.99142, 40.744811], [-73.990516, 40.746049], [-73.984076, 40.743333], [-73.980852, 40.747759], [-73.984078, 40.74911], [-73.980889, 40.753489], [-73.97835, 40.752418], [-73.975809, 40.754686], [-73.969802, 40.762922], [-73.973016, 40.764287]]]}, "properties": {"OBJECTID": 83, "BoroCode": 1, "BoroName": "Manhattan", "CountyFIPS": "061", "NTACode": "MN17", "NTAName": "Midtown-Midtown South", "Shape__Area": 30191566.3970032, "Shape__Length": 27032.5825366767}, "id": 83}, {"type": "Feature", "geometry": {"type": "Polygon", "coordinates": [[[-73.949333, 40.785201], [-73.955779, 40.787922], [-73.973016, 40.764287], [-73.969802, 40.762922], [-73.966585, 40.761559], [-73.957296, 40.774292], [-73.949333, 40.785201]]]}, "properties": {"OBJECTID": 84, "BoroCode": 1, "BoroName": "Manhattan", "CountyFIPS": "061", "NTACode": "MN40", "NTAName": "Upper East Side-Carnegie Hill", "Shape__Area": 20065364.1777802, "Shape__Length": 23778.4105186235}, "id": 84}, {"type": "Feature", "geometry": {"type": "Polygon", "coordinates": [[[-73.934454, 40.835989], [-73.93819, 40.833278], [-73.940143, 40.83038], [-73.938642, 40.829747], [-73.93925, 40.828305], [-73.942925, 40.823269], [-73.945161, 40.820887], [-73.94608, 40.821271], [-73.948836, 40.815372], [-73.952103, 40.811451], [-73.941773, 40.807097], [-73.938546, 40.805738], [-73.935809, 40.809506], [-73.939019, 40.810865], [-73.934076, 40.817835], [-73.933831, 40.819499], [-73.934425, 40.827051], [-73.935169, 40.832883], [-73.934454, 40.835989]]]}, "properties": {"OBJECTID": 107, "BoroCode": 1, "BoroName": "Manhattan", "CountyFIPS": "061", "NTACode": "MN03", "NTAName": "Central Harlem North-Polo Grounds", "Shape__Area": 25403489.1036835, "Shape__Length": 27983.841451851}, "id": 107}, {"type": "Feature", "geometry": {"type": "Polygon", "coordinates": [[[-73.943546, 40.782889], [-73.949333, 40.785201], [-73.957296, 40.774292], [-73.947491, 40.770123], [-73.942932, 40.774685], [-73.942004, 40.776194], [-73.943602, 40.780167], [-73.943546, 40.782889]]]}, "properties": {"OBJECTID": 110, "BoroCode": 1, "BoroName": "Manhattan", "CountyFIPS": "061", "NTACode": "MN32", "NTAName": "Yorkville", "Shape__Area": 13602040.3132782, "Shape__Length": 17998.6268717965}, "id": 110}, {"type": "Feature", "geometry": {"type": "Polygon", "coordinates": [[[-73.991907, 40.709534], [-73.988638, 40.70992], [-73.988166, 40.709165], [-73.981247, 40.709834], [-73.978257, 40.710506], [-73.97643, 40.711917], [-73.974902, 40.715142], [-73.973114, 40.720167], [-73.971628, 40.726637], [-73.978028, 40.729441], [-73.983825, 40.721481], [-73.985075, 40.719092], [-73.986753, 40.719601], [-73.988368, 40.716454], [-73.990204, 40.714673], [-73.992564, 40.714396], [-73.991907, 40.709534]]]}, "properties": {"OBJECTID": 115, "BoroCode": 1, "BoroName": "Manhattan", "CountyFIPS": "061", "NTACode": "MN28", "NTAName": "Lower East Side", "Shape__Area": 23296813.2311249, "Shape__Length": 25466.6770469516}, "id": 115}, {"type": "Feature", "geometry": {"type": "Polygon", "coordinates": [[[-73.978542, 40.736896], [-73.978054, 40.737562], [-73.982669, 40.739507], [-73.980861, 40.741978], [-73.984076, 40.743333], [-73.989876, 40.735417], [-73.989904, 40.734443], [-73.982558, 40.731358], [-73.978542, 40.736896]]]}, "properties": {"OBJECTID": 119, "BoroCode": 1, "BoroName": "Manhattan", "CountyFIPS": "061", "NTACode": "MN21", "NTAName": "Gramercy", "Shape__Area": 7526903.43640137, "Shape__Length": 12096.8474439448}, "id": 119}, {"type": "Feature", "geometry": {"type": "MultiPolygon", "coordinates": [[[[-73.922046, 40.856862], [-73.919504, 40.858799], [-73.917053, 40.861901], [-73.91392, 40.864754], [-73.911032, 40.869164], [-73.91065, 40.872305], [-73.911579, 40.87328], [-73.914011, 40.871169], [-73.918461, 40.87303], [-73.919256, 40.871016], [-73.921533, 40.869458], [-73.9262, 40.868522], [-73.928728, 40.86675], [-73.927271, 40.865543], [-73.924743, 40.861602], [-73.922046, 40.856862]]], [[[-73.907466, 40.873556], [-73.90683, 40.87664], [-73.9095, 40.878785], [-73.91206, 40.878128], [-73.915787, 40.875725], [-73.911673, 40.874496], [-73.908934, 40.872166], [-73.907466, 40.873556]]]]}, "properties": {"OBJECTID": 120, "BoroCode": 1, "BoroName": "Manhattan", "CountyFIPS": "061", "NTACode": "MN01", "NTAName": "Marble Hill-Inwood", "Shape__Area": 17732715.6413422, "Shape__Length": 31844.3334288398}, "id": 120}, {"type": "Feature", "geometry": {"type": "Polygon", "coordinates": [[[-73.982558, 40.731358], [-73.989904, 40.734443], [-73.991299, 40.727764], [-73.992605, 40.724145], [-73.983825, 40.721481], [-73.978028, 40.729441], [-73.982558, 40.731358]]]}, "properties": {"OBJECTID": 121, "BoroCode": 1, "BoroName": "Manhattan", "CountyFIPS": "061", "NTACode": "MN22", "NTAName": "East Village", "Shape__Area": 10894316.1206665, "Shape__Length": 13555.2394514054}, "id": 121}, {"type": "Feature", "geometry": {"type": "Polygon", "coordinates": [[[-73.992605, 40.724145], [-73.997612, 40.725805], [-74.002819, 40.728371], [-74.010675, 40.729121], [-74.011385, 40.728238], [-74.013032, 40.71914], [-74.012443, 40.719066], [-74.013843, 40.713737], [-74.008602, 40.7114], [-74.006136, 40.711956], [-74.002724, 40.714398], [-73.999958, 40.718025], [-73.99606, 40.71624], [-73.994809, 40.718466], [-73.992605, 40.724145]]]}, "properties": {"OBJECTID": 122, "BoroCode": 1, "BoroName": "Manhattan", "CountyFIPS": "061", "NTACode": "MN24", "NTAName": "SoHo-TriBeCa-Civic Center-Little Italy", "Shape__Area": 25032687.7199097, "Shape__Length": 26855.032328042}, "id": 122}, {"type": "Feature", "geometry": {"type": "Polygon", "coordinates": [[[-74.001535, 40.762653], [-74.003135, 40.761087], [-74.007621, 40.75429], [-74.00995, 40.74894], [-74.00906, 40.747794], [-74.00956, 40.745297], [-74.009168, 40.742425], [-74.0087, 40.74237], [-73.989904, 40.734443], [-73.989876, 40.735417], [-73.984076, 40.743333], [-73.990516, 40.746049], [-73.99142, 40.744811], [-73.9971, 40.747213], [-73.991634, 40.754715], [-73.9973, 40.757115], [-73.995476, 40.759635], [-74.001279, 40.762084], [-74.001535, 40.762653]]]}, "properties": {"OBJECTID": 123, "BoroCode": 1, "BoroName": "Manhattan", "CountyFIPS": "061", "NTACode": "MN13", "NTAName": "Hudson Yards-Chelsea-Flatiron-Union Square", "Shape__Area": 37068405.4248962, "Shape__Length": 45693.0248092978}, "id": 123}, {"type": "Feature", "geometry": {"type": "Polygon", "coordinates": [[[-73.989904, 40.734443], [-74.0087, 40.74237], [-74.009168, 40.742425], [-74.010394, 40.739183], [-74.011163, 40.730459], [-74.014017, 40.730691], [-74.014392, 40.728471], [-74.011385, 40.728238], [-74.010675, 40.729121], [-74.002819, 40.728371], [-73.997612, 40.725805], [-73.992605, 40.724145], [-73.991299, 40.727764], [-73.989904, 40.734443]]]}, "properties": {"OBJECTID": 124, "BoroCode": 1, "BoroName": "Manhattan", "CountyFIPS": "061", "NTACode": "MN23", "NTAName": "West Village", "Shape__Area": 24970652.2663879, "Shape__Length": 28621.3522848204}, "id": 124}, {"type": "Feature", "geometry": {"type": "Polygon", "coordinates": [[[-73.960032, 40.798046], [-73.972873, 40.803364], [-73.980539, 40.792465], [-73.988129, 40.78141], [-73.985681, 40.780321], [-73.985073, 40.781788], [-73.975003, 40.777536], [-73.960032, 40.798046]]]}, "properties": {"OBJECTID": 125, "BoroCode": 1, "BoroName": "Manhattan", "CountyFIPS": "061", "NTACode": "MN12", "NTAName": "Upper West Side", "Shape__Area": 34379942.4968414, "Shape__Length": 29160.2062800546}, "id": 125}, {"type": "Feature", "geometry": {"type": "Polygon", "coordinates": [[[-73.974442, 40.735325], [-73.978542, 40.736896], [-73.982558, 40.731358], [-73.978028, 40.729441], [-73.971628, 40.726637], [-73.971481, 40.729258], [-73.973415, 40.731291], [-73.974442, 40.735325]]]}, "properties": {"OBJECTID": 153, "BoroCode": 1, "BoroName": "Manhattan", "CountyFIPS": "061", "NTACode": "MN50", "NTAName": "Stuyvesant Town-Cooper Village", "Shape__Area": 5582283.01557922, "Shape__Length": 12021.7903016462}, "id": 153}, {"type": "Feature", "geometry": {"type": "Polygon", "coordinates": [[[-73.974442, 40.735325], [-73.972491, 40.735812], [-73.972659, 40.739231], [-73.971681, 40.743063], [-73.97351, 40.74379], [-73.97123, 40.746927], [-73.975843, 40.748894], [-73.974446, 40.750773], [-73.97835, 40.752418], [-73.980889, 40.753489], [-73.984078, 40.74911], [-73.980852, 40.747759], [-73.984076, 40.743333], [-73.980861, 40.741978], [-73.982669, 40.739507], [-73.978054, 40.737562], [-73.978542, 40.736896], [-73.974442, 40.735325]]]}, "properties": {"OBJECTID": 159, "BoroCode": 1, "BoroName": "Manhattan", "CountyFIPS": "061", "NTACode": "MN20", "NTAName": "Murray Hill-Kips Bay", "Shape__Area": 14485874.7727509, "Shape__Length": 24491.3105701373}, "id": 159}, {"type": "Feature", "geometry": {"type": "Polygon", "coordinates": [[[-73.940348, 40.830466], [-73.949576, 40.834428], [-73.950157, 40.834405], [-73.954543, 40.82787], [-73.95726, 40.827126], [-73.95951, 40.823604], [-73.956342, 40.823101], [-73.95083, 40.820836], [-73.949923, 40.822081], [-73.94608, 40.821271], [-73.945161, 40.820887], [-73.942925, 40.823269], [-73.93925, 40.828305], [-73.938642, 40.829747], [-73.940143, 40.83038], [-73.940348, 40.830466]]]}, "properties": {"OBJECTID": 163, "BoroCode": 1, "BoroName": "Manhattan", "CountyFIPS": "061", "NTACode": "MN04", "NTAName": "Hamilton Heights", "Shape__Area": 16096135.9590607, "Shape__Length": 17411.3817116164}, "id": 163}, {"type": "Feature", "geometry": {"type": "Polygon", "coordinates": [[[-73.931395, 40.847437], [-73.936398, 40.849549], [-73.939572, 40.851277], [-73.942991, 40.850827], [-73.943179, 40.849808], [-73.946928, 40.850536], [-73.946791, 40.847005], [-73.946126, 40.843901], [-73.94843, 40.839869], [-73.950157, 40.834405], [-73.949576, 40.834428], [-73.940348, 40.830466], [-73.939531, 40.832961], [-73.937938, 40.834466], [-73.936385, 40.837858], [-73.935057, 40.839342], [-73.935568, 40.841721], [-73.931395, 40.847437]]]}, "properties": {"OBJECTID": 164, "BoroCode": 1, "BoroName": "Manhattan", "CountyFIPS": "061", "NTACode": "MN36", "NTAName": "Washington Heights South", "Shape__Area": 23092831.4055328, "Shape__Length": 22106.2276978937}, "id": 164}, {"type": "Feature", "geometry": {"type": "Polygon", "coordinates": [[[-73.928728, 40.86675], [-73.9322, 40.869853], [-73.932427, 40.867577], [-73.937559, 40.86009], [-73.943028, 40.852634], [-73.946928, 40.850536], [-73.943179, 40.849808], [-73.942991, 40.850827], [-73.939572, 40.851277], [-73.936398, 40.849549], [-73.931395, 40.847437], [-73.929709, 40.848131], [-73.927478, 40.850703], [-73.927697, 40.852496], [-73.924693, 40.85665], [-73.925083, 40.857965], [-73.927124, 40.858118], [-73.924743, 40.861602], [-73.927271, 40.865543], [-73.928728, 40.86675]]]}, "properties": {"OBJECTID": 165, "BoroCode": 1, "BoroName": "Manhattan", "CountyFIPS": "061", "NTACode": "MN35", "NTAName": "Washington Heights North", "Shape__Area": 22667343.7887115, "Shape__Length": 26683.5787915899}, "id": 165}, {"type": "Feature", "geometry": {"type": "Polygon", "coordinates": [[[-73.952103, 40.811451], [-73.95626, 40.813398], [-73.959495, 40.817016], [-73.962032, 40.818095], [-73.963405, 40.816692], [-73.968854, 40.80876], [-73.972873, 40.803364], [-73.960032, 40.798046], [-73.958174, 40.800591], [-73.959648, 40.801165], [-73.95825, 40.803115], [-73.958183, 40.805605], [-73.954968, 40.810073], [-73.953577, 40.809485], [-73.952103, 40.811451]]]}, "properties": {"OBJECTID": 166, "BoroCode": 1, "BoroName": "Manhattan", "CountyFIPS": "061", "NTACode": "MN09", "NTAName": "Morningside Heights", "Shape__Area": 20155914.6596985, "Shape__Length": 20746.0323266599}, "id": 166}, {"type": "Feature", "geometry": {"type": "Polygon", "coordinates": [[[-73.935055, 40.791695], [-73.937738, 40.792824], [-73.93865, 40.791566], [-73.943274, 40.793496], [-73.941877, 40.795414], [-73.948313, 40.798137], [-73.949235, 40.79688], [-73.955779, 40.787922], [-73.949333, 40.785201], [-73.943546, 40.782889], [-73.939828, 40.785265], [-73.938117, 40.787193], [-73.937063, 40.789422], [-73.935055, 40.791695]]]}, "properties": {"OBJECTID": 167, "BoroCode": 1, "BoroName": "Manhattan", "CountyFIPS": "061", "NTACode": "MN33", "NTAName": "East Harlem South", "Shape__Area": 16650687.5712128, "Shape__Length": 18624.6648077795}, "id": 167}, {"type": "Feature", "geometry": {"type": "Polygon", "coordinates": [[[-73.971681, 40.743063], [-73.965325, 40.751056], [-73.958779, 40.758279], [-73.966585, 40.761559], [-73.969802, 40.762922], [-73.975809, 40.754686], [-73.97835, 40.752418], [-73.974446, 40.750773], [-73.975843, 40.748894], [-73.97123, 40.746927], [-73.97351, 40.74379], [-73.971681, 40.743063]]]}, "properties": {"OBJECTID": 168, "BoroCode": 1, "BoroName": "Manhattan", "CountyFIPS": "061", "NTACode": "MN19", "NTAName": "Turtle Bay-East Midtown", "Shape__Area": 17389163.8258972, "Shape__Length": 21124.0541870805}, "id": 168}, {"type": "Feature", "geometry": {"type": "MultiPolygon", "coordinates": [[[[-73.941802, 40.769055], [-73.940202, 40.771137], [-73.942128, 40.772043], [-73.944725, 40.769742], [-73.949088, 40.764272], [-73.953664, 40.759488], [-73.960687, 40.75121], [-73.957916, 40.752118], [-73.952542, 40.757104], [-73.942857, 40.768312], [-73.941802, 40.769055]]], [[[-73.958779, 40.758279], [-73.95442, 40.762192], [-73.947491, 40.770123], [-73.957296, 40.774292], [-73.966585, 40.761559], [-73.958779, 40.758279]]]]}, "properties": {"OBJECTID": 170, "BoroCode": 1, "BoroName": "Manhattan", "CountyFIPS": "061", "NTACode": "MN31", "NTAName": "Lenox Hill-Roosevelt Island", "Shape__Area": 21508598.6396942, "Shape__Length": 38404.2443225533}, "id": 170}, {"type": "Feature", "geometry": {"type": "MultiPolygon", "coordinates": [[[[-74.043879, 40.690196], [-74.045996, 40.691113], [-74.047202, 40.690433], [-74.044785, 40.688604], [-74.043879, 40.690196]]], [[[-74.016749, 40.693352], [-74.019437, 40.693229], [-74.020207, 40.692042], [-74.026176, 40.686437], [-74.026578, 40.68525], [-74.02465, 40.683987], [-74.02276, 40.684293], [-74.016049, 40.687346], [-74.013171, 40.688163], [-74.012185, 40.691144], [-74.014223, 40.692831], [-74.016749, 40.693352]]], [[[-74.039952, 40.700899], [-74.0411, 40.700501], [-74.043675, 40.698029], [-74.041662, 40.696461], [-74.037713, 40.699352], [-74.039952, 40.700899]]], [[[-74.013953, 40.700999], [-74.014291, 40.704557], [-74.017572, 40.704192], [-74.017577, 40.703316], [-74.015144, 40.700851], [-74.013953, 40.700999]]], [[[-73.973016, 40.764287], [-73.955779, 40.787922], [-73.949235, 40.79688], [-73.958174, 40.800591], [-73.960032, 40.798046], [-73.975003, 40.777536], [-73.981681, 40.768398], [-73.981493, 40.767889], [-73.973016, 40.764287]]], [[[-73.927187, 40.797358], [-73.927355, 40.79447], [-73.928267, 40.793221], [-73.927137, 40.791938], [-73.931477, 40.790487], [-73.935714, 40.785689], [-73.936072, 40.784225], [-73.935025, 40.783015], [-73.93064, 40.78227], [-73.928494, 40.781017], [-73.924482, 40.782329], [-73.922853, 40.783564], [-73.921894, 40.785712], [-73.91851, 40.789433], [-73.915143, 40.792021], [-73.913806, 40.79452], [-73.915456, 40.797072], [-73.920316, 40.799384], [-73.921912, 40.801511], [-73.925277, 40.802007], [-73.926511, 40.800665], [-73.926554, 40.800613], [-73.92654, 40.800342], [-73.926555, 40.800323], [-73.926667, 40.800191], [-73.926697, 40.800155], [-73.927204, 40.797395], [-73.927187, 40.797358]]], [[[-73.922046, 40.856862], [-73.924743, 40.861602], [-73.927124, 40.858118], [-73.925083, 40.857965], [-73.924693, 40.85665], [-73.927697, 40.852496], [-73.927478, 40.850703], [-73.929709, 40.848131], [-73.931395, 40.847437], [-73.935568, 40.841721], [-73.935057, 40.839342], [-73.936385, 40.837858], [-73.937938, 40.834466], [-73.939531, 40.832961], [-73.940348, 40.830466], [-73.940143, 40.83038], [-73.93819, 40.833278], [-73.934454, 40.835989], [-73.930812, 40.842726], [-73.92972, 40.84524], [-73.922298, 40.855672], [-73.922346, 40.855691], [-73.922046, 40.856862]]], [[[-73.911579, 40.87328], [-73.915225, 40.874495], [-73.91793, 40.873987], [-73.920915, 40.875473], [-73.922378, 40.876767], [-73.924572, 40.877437], [-73.926901, 40.877225], [-73.929015, 40.875747], [-73.931915, 40.871138], [-73.9322, 40.869853], [-73.928728, 40.86675], [-73.9262, 40.868522], [-73.921533, 40.869458], [-73.919256, 40.871016], [-73.918461, 40.87303], [-73.914011, 40.871169], [-73.911579, 40.87328]]]]}, "properties": {"OBJECTID": 172, "BoroCode": 1, "BoroName": "Manhattan", "CountyFIPS": "061", "NTACode": "MN99", "NTAName": "park-cemetery-etc-Manhattan", "Shape__Area": 91543546.6588898, "Shape__Length": 155352.744713049}, "id": 172}, {"type": "Feature", "geometry": {"type": "Polygon", "coordinates": [[[-73.941773, 40.807097], [-73.952103, 40.811451], [-73.953577, 40.809485], [-73.954968, 40.810073], [-73.958183, 40.805605], [-73.95825, 40.803115], [-73.959648, 40.801165], [-73.958174, 40.800591], [-73.949235, 40.79688], [-73.948313, 40.798137], [-73.944601, 40.803233], [-73.946133, 40.803886], [-73.944303, 40.806399], [-73.941773, 40.807097]]]}, "properties": {"OBJECTID": 179, "BoroCode": 1, "BoroName": "Manhattan", "CountyFIPS": "061", "NTACode": "MN11", "NTAName": "Central Harlem South", "Shape__Area": 14439255.5326996, "Shape__Length": 16620.9965067637}, "id": 179}, {"type": "Feature", "geometry": {"type": "Polygon", "coordinates": [[[-73.935055, 40.791695], [-73.930198, 40.794601], [-73.929038, 40.796771], [-73.929036, 40.801089], [-73.931161, 40.804975], [-73.933563, 40.807609], [-73.93434, 40.80957], [-73.933983, 40.812823], [-73.933831, 40.819499], [-73.934076, 40.817835], [-73.939019, 40.810865], [-73.935809, 40.809506], [-73.938546, 40.805738], [-73.941773, 40.807097], [-73.944303, 40.806399], [-73.946133, 40.803886], [-73.944601, 40.803233], [-73.948313, 40.798137], [-73.941877, 40.795414], [-73.943274, 40.793496], [-73.93865, 40.791566], [-73.937738, 40.792824], [-73.935055, 40.791695]]]}, "properties": {"OBJECTID": 180, "BoroCode": 1, "BoroName": "Manhattan", "CountyFIPS": "061", "NTACode": "MN34", "NTAName": "East Harlem North", "Shape__Area": 24494898.4182281, "Shape__Length": 30603.718884206}, "id": 180}]}